FENGYUN 1C DEB          
1 35173U 99025DND 17345.26158591  .00000710  00000-0  78605-3 0  9998
2 35173  99.6975 147.7943 0520314  45.9593 318.3190 13.28048390499860
